[{"OBJECT_NAME":"STARLINK-6376","OBJECT_ID":"2023-099X","EPOCH":"2026-03-09T22:00:01.999584","MEAN_MOTION":15.14373336,"ECCENTRICITY":0.00016799,"INCLINATION":42.9997,"RA_OF_ASC_NODE":246.8696,"ARG_OF_PERICENTER":215.6032,"MEAN_ANOMALY":44.7192,"EPHEMERIS_TYPE":0,"CLASSIFICATION_TYPE":"U","NORAD_CAT_ID":57349,"ELEMENT_SET_NO":999,"REV_AT_EPOCH":578,"BSTAR":0.0065474134,"MEAN_MOTION_DOT":0.00124192,"MEAN_MOTION_DDOT":0},{"OBJECT_NAME":"OBJECT BA","OBJECT_ID":"2018-099BA","EPOCH":"2026-03-09T15:44:21.430176","MEAN_MOTION":15.14740274,"ECCENTRICITY":0.00061825,"INCLINATION":97.413,"RA_OF_ASC_NODE":118.5956,"ARG_OF_PERICENTER":324.4238,"MEAN_ANOMALY":35.6581,"EPHEMERIS_TYPE":0,"CLASSIFICATION_TYPE":"U","NORAD_CAT_ID":43806,"ELEMENT_SET_NO":999,"REV_AT_EPOCH":39736,"BSTAR":0.00036107043,"MEAN_MOTION_DOT":6.632e-5,"MEAN_MOTION_DDOT":0}]
